[
    {
        "model": "songwrytrapp.pro",
        "pk": 1,
        "fields": {
            "name": "BMI",
            "address": "10 Music Square E",
            "city": "Nashville",
            "state": "TN",
            "zipcode": "37203",
            "website": "https://www.bmi.com/"
        }
    },
    {
        "model": "songwrytrapp.pro",
        "pk": 2,
        "fields": {
            "name": "ASCAP",
            "address": "2 Music Square W",
            "city": "Nashville",
            "state": "TN",
            "zipcode": "37203",
            "website": "https://www.ascap.com/"
        }
    },
    {
        "model": "songwrytrapp.pro",
        "pk": 3,
        "fields": {
            "name": "SESAC",
            "address": "35 Music Square E",
            "city": "Nashville",
            "state": "TN",
            "zipcode": "37203",
            "website": "https://www.sesac.com/"
        }
    },
    {
        "model": "songwrytrapp.pro",
        "pk": 4,
        "fields": {
            "name": "SOCAN",
            "address": "41 Valleybrook Drive",
            "city": "Toronto",
            "state": "ON",
            "zipcode": "M3B 2S6",
            "website": "http://www.socan.com/"
        }
    },
    {
        "model": "songwrytrapp.pro",
        "pk": 5,
        "fields": {
            "name": "BMI",
            "address": "7 World Trade Center, 250 Greenwich St",
            "city": "New York",
            "state": "NY",
            "zipcode": "10006",
            "website": "https://www.bmi.com/"
        }
    },
    {
        "model": "songwrytrapp.pro",
        "pk": 6,
        "fields": {
            "name": "BMI",
            "address": "Tower Place 100, 3340 Peachtree Rd NE, Suite 570",
            "city": "Atlanta",
            "state": "GA",
            "zipcode": "30326",
            "website": "https://www.bmi.com/"
        }
    },
    {
        "model": "songwrytrapp.pro",
        "pk": 7,
        "fields": {
            "name": "BMI",
            "address": "1400 S Congress Ave Suite B 200",
            "city": "Austin",
            "state": "TX",
            "zipcode": "78704",
            "website": "https://www.bmi.com/"
        }
    },
    {
        "model": "songwrytrapp.pro",
        "pk": 8,
        "fields": {
            "name": "BMI",
            "address": "8730 Sunset Blvd, 3rd Floor West",
            "city": "West Hollywood",
            "state": "CA",
            "zipcode": "90069-2211",
            "website": "https://www.bmi.com/"
        }
    },
    {
        "model": "songwrytrapp.pro",
        "pk": 9,
        "fields": {
            "name": "BMI",
            "address": "84 Harley House, Marylebone Road",
            "city": "London",
            "state": "UK",
            "zipcode": "NW1 5HN",
            "website": "https://www.bmi.com/"
        }
    },
    {
        "model": "songwrytrapp.pro",
        "pk": 10,
        "fields": {
            "name": "BMI",
            "address": "1250 Ave. Ponce de Leon, San Jose Building, Suite 1008",
            "city": "Santurce",
            "state": "PR",
            "zipcode": "00907",
            "website": "https://www.bmi.com/"
        }
    },
    {
        "model": "songwrytrapp.pro",
        "pk": 11,
        "fields": {
            "name": "ASCAP",
            "address": "250 West 57th Street",
            "city": "New York",
            "state": "NY",
            "zipcode": "10107",
            "website": "https://www.ascap.com/"
        }
    },
    {
        "model": "songwrytrapp.pro",
        "pk": 12,
        "fields": {
            "name": "ASCAP",
            "address": "7920 W. Sunset Boulevard, Third Floor",
            "city": "Los Angeles",
            "state": "CA",
            "zipcode": "90046",
            "website": "https://www.ascap.com/"
        }
    },
    {
        "model": "songwrytrapp.pro",
        "pk": 13,
        "fields": {
            "name": "ASCAP",
            "address": "950 Joseph E. Lowery Blvd. NW, Suite 23",
            "city": "Atlanta",
            "state": "GA",
            "zipcode": "30318",
            "website": "https://www.ascap.com/"
        }
    },
    {
        "model": "songwrytrapp.pro",
        "pk": 14,
        "fields": {
            "name": "ASCAP",
            "address": "420 Lincoln Rd, Suite 502",
            "city": "Miami",
            "state": "FL",
            "zipcode": "33139",
            "website": "https://www.ascap.com/"
        }
    },
    {
        "model": "songwrytrapp.pro",
        "pk": 15,
        "fields": {
            "name": "ASCAP",
            "address": "623 Calle Hillside",
            "city": "San Juan",
            "state": "PR",
            "zipcode": "00920",
            "website": "https://www.ascap.com/"
        }
    },
    {
        "model": "songwrytrapp.pro",
        "pk": 16,
        "fields": {
            "name": "ASCAP",
            "address": "4 Millbank, 2nd Floor",
            "city": "London",
            "state": "UK",
            "zipcode": "SW1P 3JA",
            "website": "https://www.ascap.com/"
        }
    },
    {
        "model": "songwrytrapp.pro",
        "pk": 17,
        "fields": {
            "name": "SESAC",
            "address": "152 West 57th Street, 57th Floor",
            "city": "New York",
            "state": "NY",
            "zipcode": "10019",
            "website": "https://www.sesac.com/"
        }
    },
    {
        "model": "songwrytrapp.pro",
        "pk": 18,
        "fields": {
            "name": "SESAC",
            "address": "40 Wall St., 6th Floor",
            "city": "New York",
            "state": "NY",
            "zipcode": "10005",
            "website": "https://www.sesac.com/"
        }
    },
    {
        "model": "songwrytrapp.pro",
        "pk": 19,
        "fields": {
            "name": "SESAC",
            "address": "1 Primrose St.",
            "city": "London",
            "state": "UK",
            "zipcode": "EC2A 2EX",
            "website": "https://www.sesac.com/"
        }
    },
    {
        "model": "songwrytrapp.pro",
        "pk": 20,
        "fields": {
            "name": "SESAC",
            "address": "2150 Colorado Ave., Suite 150",
            "city": "Santa Monica",
            "state": "CA",
            "zipcode": "90404",
            "website": "https://www.sesac.com/"
        }
    },
    {
        "model": "songwrytrapp.pro",
        "pk": 21,
        "fields": {
            "name": "SESAC",
            "address": "Hohenstaufenstr. 1",
            "city": "Munich",
            "state": "Germany",
            "zipcode": "80801",
            "website": "https://www.sesac.com/"
        }
    },
    {
        "model": "songwrytrapp.pro",
        "pk": 22,
        "fields": {
            "name": "APRA AMCOS",
            "address": "Locked Bag 5000",
            "city": "Strawberry Hills",
            "state": "NSW",
            "zipcode": "2012",
            "website": "https://apraamcos.com.au/"
        }
    },
    {
        "model": "songwrytrapp.pro",
        "pk": 23,
        "fields": {
            "name": "APRA AMCOS",
            "address": "3-5 Sanders Place",
            "city": "Richmond",
            "state": "VIC",
            "zipcode": "3121",
            "website": "https://apraamcos.com.au/"
        }
    },
    {
        "model": "songwrytrapp.pro",
        "pk": 24,
        "fields": {
            "name": "APRA AMCOS",
            "address": "3 Winn Street",
            "city": "Fortitude Valley",
            "state": "QLD",
            "zipcode": "4006",
            "website": "https://apraamcos.com.au/"
        }
    },
    {
        "model": "songwrytrapp.pro",
        "pk": 25,
        "fields": {
            "name": "APRA AMCOS",
            "address": "Suite 29, 8-20 Oâ€™Connell Street",
            "city": "North Adelaide",
            "state": "SA",
            "zipcode": "5006",
            "website": "https://apraamcos.com.au/"
        }
    },
    {
        "model": "songwrytrapp.pro",
        "pk": 26,
        "fields": {
            "name": "APRA AMCOS",
            "address": "Level 2, 8 McMinn Street",
            "city": "Darwin",
            "state": "NT",
            "zipcode": "0800",
            "website": "https://apraamcos.com.au/"
        }
    },
    {
        "model": "songwrytrapp.pro",
        "pk": 27,
        "fields": {
            "name": "APRA AMCOS",
            "address": "Suite 1, 12-20 Railway Road",
            "city": "Subiaco",
            "state": "WA",
            "zipcode": "6008",
            "website": "https://apraamcos.com.au/"
        }
    },
    {
        "model": "songwrytrapp.pro",
        "pk": 28,
        "fields": {
            "name": "Other",
            "address": "n/a",
            "city": "n/a",
            "state": "n/a",
            "zipcode": "n/a",
            "website": "n/a"
        }
    }
]